[{"OBJECT_NAME":"PRAETORIAN SDA_619","OBJECT_ID":"2025-203T","EPOCH":"2026-03-09T14:29:57.164640","MEAN_MOTION":13.83929489,"ECCENTRICITY":0.0009419,"INCLINATION":81.3013,"RA_OF_ASC_NODE":102.9558,"ARG_OF_PERICENTER":101.1337,"MEAN_ANOMALY":259.0878,"EPHEMERIS_TYPE":0,"CLASSIFICATION_TYPE":"U","NORAD_CAT_ID":65582,"ELEMENT_SET_NO":999,"REV_AT_EPOCH":2555,"BSTAR":0.00020555,"MEAN_MOTION_DOT":2.4e-6,"MEAN_MOTION_DDOT":0},{"OBJECT_NAME":"COSMOS 1275 DEB","OBJECT_ID":"1981-053K","EPOCH":"2026-03-09T17:31:44.423328","MEAN_MOTION":13.76808079,"ECCENTRICITY":0.00330747,"INCLINATION":82.9589,"RA_OF_ASC_NODE":305.5322,"ARG_OF_PERICENTER":348.8306,"MEAN_ANOMALY":76.6379,"EPHEMERIS_TYPE":0,"CLASSIFICATION_TYPE":"U","NORAD_CAT_ID":12655,"ELEMENT_SET_NO":999,"REV_AT_EPOCH":23971,"BSTAR":0.00013208428,"MEAN_MOTION_DOT":1.45e-6,"MEAN_MOTION_DDOT":0}]
